FLOCK 3P-85             
1 41983U 17008AM  18024.86427249  .00002122  00000-0  90793-4 0  9997
2 41983  97.4716  90.6385 0009541 135.6330 224.5673 15.23900456 52126
FLOCK 3P-79             
1 41984U 17008AN  18024.86515966  .00001045  00000-0  46285-4 0  9992
2 41984  97.4718  90.6359 0009250 134.8777 225.3212 15.23840190 52129
FLOCK 3P-86             
1 41985U 17008AP  18024.80106753  .00001037  00000-0  45978-4 0  9996
2 41985  97.4717  90.5628 0009225 134.4257 225.7736 15.23825704 52105
FLOCK 3P-36             
1 41986U 17008AQ  18024.80326992  .00000977  00000-0  43499-4 0  9994
2 41986  97.4700  90.4797 0009030 132.1048 228.0958 15.23842734 51597
FLOCK 3P-30             
1 41987U 17008AR  18025.45175715  .00002336  00000-0  99771-4 0  9997
2 41987  97.4698  91.1451 0008978 131.5997 228.6010 15.23851226 52160
FLOCK 3P-34             
1 41988U 17008AS  18025.13479363  .00001107  00000-0  48859-4 0  9995
2 41988  97.4695  90.7844 0009134 129.2229 230.9820 15.23844827 51642
FLOCK 3P-35             
1 41989U 17008AT  18024.74419482  .00001009  00000-0  44837-4 0  9991
2 41989  97.4694  90.3854 0009287 130.3474 229.8575 15.23818044 51582
FLOCK 3P-33             
1 41990U 17008AU  18024.73852470  .00000911  00000-0  40761-4 0  9993
2 41990  97.4696  90.4001 0008911 131.1175 229.0833 15.23843215 51588
LEMUR-2-SATCHMO         
1 41991U 17008AV  18025.10543392  .00000986  00000-0  44955-4 0  9997
2 41991  97.4684  90.5043 0009062 132.6136 227.5866 15.22973017 51621
LEMUR-2-MIA-GRACE       
1 41992U 17008AW  18024.71924172  .00001436  00000-0  63224-4 0  9994
2 41992  97.4689  90.2677 0008949 133.8451 226.3527 15.23462033 51570
LEMUR-2-SMITA-SHARAD    
1 41993U 17008AX  18025.14487865  .00001130  00000-0  50828-4 0  9993
2 41993  97.4683  90.6067 0008996 132.1501 228.0502 15.23147011 51637
LEMUR-2-SPIRE-MINIONS   
1 41994U 17008AY  18024.72854956  .00001438  00000-0  63380-4 0  9994
2 41994  97.4686  90.2451 0009007 133.1122 227.0870 15.23420802 51570
LEMUR-2-RDEATON         
1 41995U 17008AZ  18024.74232850  .00001067  00000-0  48096-4 0  9995
2 41995  97.4685  90.2304 0009768 146.0336 214.1527 15.23199451 52256
LEMUR-2-NOGUECORREIG    
1 41996U 17008BA  18025.10845277  .00001566  00000-0  68730-4 0  9991
2 41996  97.4692  90.6715 0009728 145.4832 214.7039 15.23429775 51534
LEMUR-2-JOBANPUTRA      
1 41997U 17008BB  18025.14960388  .00001328  00000-0  58517-4 0  9995
2 41997  97.4693  90.7721 0009693 145.0610 215.1265 15.23556975 51635
LEMUR-2-TACHIKOMA       
1 41998U 17008BC  18025.14605107  .00001082  00000-0  48886-4 0  9996
2 41998  97.4683  90.6068 0009699 145.2024 214.9849 15.23098877 51553
BGUSAT                  
1 41999U 17008BD  18025.44430737  .00002068  00000-0  88460-4 0  9992
2 41999  97.4699  91.1624 0009648 145.1433 215.0438 15.23938026 51681
DIDO-2                  
1 42000U 17008BE  18024.83881969  .00000868  00000-0  40025-4 0  9996
2 42000  97.4680  90.2440 0009640 146.7905 213.3938 15.22889248 51589
FLOCK 3P-49             
1 42001U 17008BF  18024.66021448  .00001146  00000-0  50533-4 0  9991
2 42001  97.4698  90.3562 0009246 147.6014 212.5793 15.23816606 52094
FLOCK 3P-67             
1 42002U 17008BG  18024.85523654  .00002196  00000-0  93532-4 0  9991
2 42002  97.4693  90.5471 0009173 146.1219 214.0606 15.24011739 52287
FLOCK 3P-68             
1 42003U 17008BH  18025.19196785  .00001120  00000-0  49385-4 0  9994
2 42003  97.4693  90.8569 0009420 143.9502 216.2372 15.23849022 51976
FLOCK 3P-41             
1 42004U 17008BJ  18025.18043255  .00000867  00000-0  38919-4 0  9995
2 42004  97.4692  90.8661 0009180 145.7593 214.4237 15.23827914 52160
FLOCK 3P-45             
1 42005U 17008BK  18025.17881936  .00002164  00000-0  92199-4 0  9993
2 42005  97.4693  90.8798 0009090 146.1122 214.0697 15.24023918 52323
FLOCK 3P-48             
1 42006U 17008BL  18024.65851087  .00001008  00000-0  44810-4 0  9993
2 42006  97.4700  90.3591 0008970 148.0446 212.1337 15.23814790 52038
FLOCK 3P-43             
1 42007U 17008BM  18024.72554490  .00000680  00000-0  31309-4 0  9994
2 42007  97.4698  90.4100 0008943 148.2876 211.8901 15.23709282 52268
FLOCK 3P-42             
1 42008U 17008BN  18024.85382198  .00001207  00000-0  53004-4 0  9995
2 42008  97.4692  90.5359 0008985 147.5916 212.5874 15.23847310 52209
FLOCK 3P-61             
1 42009U 17008BP  18024.72161496  .00001208  00000-0  53061-4 0  9992
2 42009  97.4694  90.4135 0008797 149.8060 210.3686 15.23843783 52239
FLOCK 3P-40             
1 42010U 17008BQ  18025.17511835  .00001189  00000-0  52260-4 0  9998
2 42010  97.4688  90.8545 0008778 149.1822 210.9932 15.23843367 51564
FLOCK 3P-16             
1 42011U 17008BR  18025.16371022  .00001462  00000-0  63632-4 0  9999
2 42011  97.4688  90.8730 0008412 149.1919 210.9813 15.23813179 51503
FLOCK 3P-14             
1 42012U 17008BS  18024.83460504  .00001609  00000-0  69601-4 0  9992
2 42012  97.4698  90.5679 0008616 152.5555 207.6139 15.23887657 52073
FLOCK 3P-53             
1 42013U 17008BT  18025.16704128  .00001145  00000-0  50444-4 0  9993
2 42013  97.4685  90.8505 0008400 149.2054 210.9677 15.23836616 52128
FLOCK 3P-54             
1 42014U 17008BU  18025.17052344  .00002843  00000-0  12087-3 0  9997
2 42014  97.4689  90.8659 0008393 150.2423 209.9293 15.23839322 52293
PEASSS                  
1 42015U 17008BV  18025.15294364  .00001040  00000-0  46375-4 0  9992
2 42015  97.4673  90.8525 0007381 150.5119 209.6536 15.23630463 52135
AL-FARABI 1             
1 42016U 17008BW  18024.85158831  .00001345  00000-0  58570-4 0  9995
2 42016  97.4679  90.6576 0007266 151.8586 208.3045 15.23952331 52211
NAYIF-1 (EO-88)         
1 42017U 17008BX  18024.84793569  .00001344  00000-0  58474-4 0  9990
2 42017  97.4678  90.6590 0007232 152.0519 208.1108 15.23972484 52230
FLOCK 3P-23             
1 42018U 17008BY  18024.84094054  .00002749  00000-0  11693-3 0  9995
2 42018  97.4684  90.3743 0010068 128.9489 231.2647 15.23838990 51040
FLOCK 3P-76             
1 42019U 17008BZ  18024.80776352  .00001111  00000-0  49049-4 0  9999
2 42019  97.4719  90.5706 0009675 133.8391 226.3648 15.23830648 52106
FLOCK 3P-69             
1 42020U 17008CA  18025.20023320  .00001001  00000-0  44472-4 0  9999
2 42020  97.4719  90.9643 0009575 131.6875 228.5183 15.23831551 51059
FLOCK 3P-84             
1 42021U 17008CB  18025.14490791  .00001270  00000-0  55625-4 0  9993
2 42021  97.4714  90.8653 0009941 131.8278 228.3809 15.23836259 52167
FLOCK 3P-59             
1 42022U 17008CC  18025.47089603  .00002201  00000-0  93891-4 0  9998
2 42022  97.4692  91.1023 0009375 130.9048 229.3002 15.23954079 51238
FLOCK 3P-32             
1 42023U 17008CD  18025.47775625  .00001684  00000-0  72796-4 0  9990
2 42023  97.4693  91.0965 0009407 127.7109 232.4982 15.23832937 52378
FLOCK 3P-71             
1 42024U 17008CE  18025.16677075  .00001870  00000-0  80519-4 0  9996
2 42024  97.4716  90.8616 0009651 133.4303 226.7739 15.23837807 51192
FLOCK 3P-77             
1 42025U 17008CF  18024.80909007  .00001285  00000-0  56297-4 0  9996
2 42025  97.4717  90.5573 0009622 133.9908 226.2124 15.23818523 52117
FLOCK 3P-80             
1 42026U 17008CG  18024.85549384  .00001959  00000-0  83864-4 0  9998
2 42026  97.4715  90.6426 0009200 134.1063 226.0933 15.23967176 50260
FLOCK 3P-66             
1 42027U 17008CH  18025.12581417  .00001642  00000-0  71063-4 0  9990
2 42027  97.4696  90.8058 0009399 143.7231 216.4645 15.23842849 52279
FLOCK 3P-65             
1 42028U 17008CJ  18024.72985742  .00000912  00000-0  40795-4 0  9992
2 42028  97.4698  90.4155 0009249 145.1267 215.0578 15.23827637 52116
FLOCK 3P-50             
1 42029U 17008CK  18024.85772561  .00001084  00000-0  47933-4 0  9992
2 42029  97.4700  90.5608 0009043 146.5079 213.6732 15.23830148 51456
FLOCK 3P-52             
1 42030U 17008CL  18024.72849387  .00001209  00000-0  53122-4 0  9997
2 42030  97.4696  90.4123 0009120 146.4634 213.7182 15.23839646 52201
FLOCK 3P-46             
1 42031U 17008CM  18024.72344369  .00001453  00000-0  63269-4 0  9992
2 42031  97.4693  90.4091 0009008 147.3434 212.8361 15.23820536 52236
FLOCK 3P-47             
1 42032U 17008CN  18025.11919300  .00001677  00000-0  72558-4 0  9999
2 42032  97.4692  90.7972 0008979 146.3214 213.8595 15.23821518 52149
FLOCK 3P-44             
1 42033U 17008CP  18025.44420926  .00000778  00000-0  35403-4 0  9996
2 42033  97.4697  91.1407 0009081 148.0951 212.0838 15.23692606 50946
FLOCK 3P-64             
1 42034U 17008CQ  18024.85112463  .00001404  00000-0  61182-4 0  9995
2 42034  97.4691  90.5360 0008857 149.1151 211.0609 15.23836002 52279
FLOCK 3P-63             
1 42035U 17008CR  18024.84895079  .00002249  00000-0  96264-4 0  9993
2 42035  97.4688  90.5326 0008840 149.0357 211.1402 15.23826900 50240
FLOCK 3P-62             
1 42036U 17008CS  18024.82264863  .00002112  00000-0  89865-4 0  9991
2 42036  97.4690  90.5750 0008813 150.7767 209.3965 15.24098939 51449
FLOCK 3P-38             
1 42037U 17008CT  18025.17586863  .00002659  00000-0  11321-3 0  9995
2 42037  97.4690  90.8647 0008553 148.5484 211.6266 15.23841402 52272
FLOCK 3P-39             
1 42038U 17008CU  18025.17360213  .00002143  00000-0  91859-4 0  9998
2 42038  97.4686  90.8512 0008801 148.9234 211.2526 15.23821323 52222
FLOCK 3P-15             
1 42039U 17008CV  18024.85026730  .00001340  00000-0  58534-4 0  9997
2 42039  97.4689  90.5315 0008661 149.5596 210.6146 15.23844718 51454
FLOCK 3P-13             
1 42040U 17008CW  18025.10765868  .00001185  00000-0  52270-4 0  9998
2 42040  97.4695  90.8111 0008545 149.8215 210.3516 15.23743876 51486
FLOCK 3P-55             
1 42041U 17008CX  18025.15151292  .00002771  00000-0  11791-3 0  9998
2 42041  97.4691  90.8991 0008275 152.6590 207.5084 15.23823100 52339
